{
  "norad_id": 55360,
  "name": "STARLINK-5664",
  "history": [
    {
      "epoch": "2026-05-02T12:00:02.998944Z",
      "apogee_km": 501.5931846277399,
      "perigee_km": 499.57359232168346,
      "latitude_deg": 36.77533590166705,
      "longitude_deg": 103.98604455561608,
      "height_km": 503.3385356729361,
      "semi_major_axis_km": 6878.720388474711,
      "eccentricity": 0.0001468,
      "inclination_deg": 43.0006,
      "raan_deg": 17.2679,
      "arg_perigee_deg": 278.8642,
      "mean_anomaly_deg": 200.1006,
      "mean_motion_rev_day": 15.21742877
    },
    {
      "epoch": "2026-05-03T20:00:01.999008Z",
      "apogee_km": 497.5176278615945,
      "perigee_km": 495.58309083867425,
      "latitude_deg": -33.305299459759915,
      "longitude_deg": 72.55357708430753,
      "height_km": 504.91206631483107,
      "semi_major_axis_km": 6874.687359350134,
      "eccentricity": 0.0001407,
      "inclination_deg": 42.9999,
      "raan_deg": 9.8119,
      "arg_perigee_deg": 225.9439,
      "mean_anomaly_deg": 7.3157,
      "mean_motion_rev_day": 15.23082167
    },
    {
      "epoch": "2026-05-04T20:00:01.999008Z",
      "apogee_km": 494.7868484877017,
      "perigee_km": 492.31991164125793,
      "latitude_deg": -24.249231805144532,
      "longitude_deg": 172.76497288455496,
      "height_km": 499.0341655957863,
      "semi_major_axis_km": 6871.6903800644795,
      "eccentricity": 0.0001795,
      "inclination_deg": 43.0005,
      "raan_deg": 4.2004,
      "arg_perigee_deg": 252.1668,
      "mean_anomaly_deg": 71.0639,
      "mean_motion_rev_day": 15.24078678
    },
    {
      "epoch": "2026-05-05T20:00:03.000384Z",
      "apogee_km": 491.38809405794746,
      "perigee_km": 489.4017146312108,
      "latitude_deg": 34.981176325363826,
      "longitude_deg": -116.8719144998115,
      "height_km": 492.7799569370091,
      "semi_major_axis_km": 6868.531904344579,
      "eccentricity": 0.0001446,
      "inclination_deg": 42.9994,
      "raan_deg": 358.5784,
      "arg_perigee_deg": 257.4418,
      "mean_anomaly_deg": 159.4661,
      "mean_motion_rev_day": 15.25130064
    },
    {
      "epoch": "2026-05-06T20:00:01.999008Z",
      "apogee_km": 489.06608717956715,
      "perigee_km": 487.5074089887512,
      "latitude_deg": 17.07535202328592,
      "longitude_deg": -10.866902770797248,
      "height_km": 488.02179615752505,
      "semi_major_axis_km": 6866.423748084158,
      "eccentricity": 0.0001135,
      "inclination_deg": 42.9994,
      "raan_deg": 352.9521,
      "arg_perigee_deg": 293.2244,
      "mean_anomaly_deg": 221.3526,
      "mean_motion_rev_day": 15.25832495
    },
    {
      "epoch": "2026-05-07T20:00:01.999008Z",
      "apogee_km": 488.9318021602412,
      "perigee_km": 487.2056380422082,
      "latitude_deg": -41.16928832375805,
      "longitude_deg": 70.4866764979803,
      "height_km": 499.7380560319697,
      "semi_major_axis_km": 6866.205720101225,
      "eccentricity": 0.0001257,
      "inclination_deg": 42.9994,
      "raan_deg": 347.3215,
      "arg_perigee_deg": 259.066,
      "mean_anomaly_deg": 355.1051,
      "mean_motion_rev_day": 15.25905172
    },
    {
      "epoch": "2026-05-08T20:00:01.999008Z",
      "apogee_km": 488.8915449820788,
      "perigee_km": 487.20246371700887,
      "latitude_deg": -4.255454063301892,
      "longitude_deg": 170.468711100557,
      "height_km": 488.54574442563325,
      "semi_major_axis_km": 6866.184004349543,
      "eccentricity": 0.000123,
      "inclination_deg": 42.9995,
      "raan_deg": 341.6881,
      "arg_perigee_deg": 258.9511,
      "mean_anomaly_deg": 94.9102,
      "mean_motion_rev_day": 15.25912411
    },
    {
      "epoch": "2026-05-09T13:18:30.487392Z",
      "apogee_km": 488.86635854790893,
      "perigee_km": 487.2555485080102,
      "latitude_deg": 1.0341289727156335e-05,
      "longitude_deg": -89.37374525729498,
      "height_km": 487.94802725891157,
      "semi_major_axis_km": 6866.197953527959,
      "eccentricity": 0.0001173,
      "inclination_deg": 43.0,
      "raan_deg": 337.6237,
      "arg_perigee_deg": 262.1197,
      "mean_anomaly_deg": 97.9521,
      "mean_motion_rev_day": 15.25907761
    },
    {
      "epoch": "2026-05-10T06:35:20.931648Z",
      "apogee_km": 488.61459957702937,
      "perigee_km": 487.460258332032,
      "latitude_deg": 1.5522936069965983e-06,
      "longitude_deg": 6.649467547860389,
      "height_km": 487.7689292308628,
      "semi_major_axis_km": 6866.17442895453,
      "eccentricity": 8.406e-05,
      "inclination_deg": 43.0025,
      "raan_deg": 333.5668,
      "arg_perigee_deg": 274.488,
      "mean_anomaly_deg": 85.5875,
      "mean_motion_rev_day": 15.25915603
    },
    {
      "epoch": "2026-05-11T20:17:35.824128Z",
      "apogee_km": 488.7683847470971,
      "perigee_km": 487.3333514826618,
      "latitude_deg": 1.135079185480391e-06,
      "longitude_deg": 150.68606039556425,
      "height_km": 487.95065577420866,
      "semi_major_axis_km": 6866.187868114879,
      "eccentricity": 0.0001045,
      "inclination_deg": 42.9962,
      "raan_deg": 324.7139,
      "arg_perigee_deg": 260.0744,
      "mean_anomaly_deg": 99.9989,
      "mean_motion_rev_day": 15.25911123
    },
    {
      "epoch": "2026-05-12T19:51:12.796416Z",
      "apogee_km": 489.0022288240698,
      "perigee_km": 485.9168297438109,
      "latitude_deg": 3.394545440720883e-05,
      "longitude_deg": 150.78505868111682,
      "height_km": 486.79061117042386,
      "semi_major_axis_km": 6865.59652928394,
      "eccentricity": 0.0002247,
      "inclination_deg": 43.0005,
      "raan_deg": 319.1845,
      "arg_perigee_deg": 286.8223,
      "mean_anomaly_deg": 73.2382,
      "mean_motion_rev_day": 15.26108269
    },
    {
      "epoch": "2026-05-13T05:16:18.751008Z",
      "apogee_km": 488.44784094935585,
      "perigee_km": 484.7614746791087,
      "latitude_deg": 2.1115376908320472e-05,
      "longitude_deg": 6.908237743553996,
      "height_km": 486.827919123116,
      "semi_major_axis_km": 6864.741657814232,
      "eccentricity": 0.0002685,
      "inclination_deg": 43.0008,
      "raan_deg": 316.9693,
      "arg_perigee_deg": 256.0124,
      "mean_anomaly_deg": 104.0429,
      "mean_motion_rev_day": 15.26393349
    },
    {
      "epoch": "2026-05-13T22:32:14.478144Z",
      "apogee_km": 486.1554497971383,
      "perigee_km": 484.4642964875957,
      "latitude_deg": 2.713853135989975e-05,
      "longitude_deg": 103.15608018101612,
      "height_km": 484.2470543643211,
      "semi_major_axis_km": 6863.446873142367,
      "eccentricity": 0.0001232,
      "inclination_deg": 43.0006,
      "raan_deg": 312.9084,
      "arg_perigee_deg": 7.5132,
      "mean_anomaly_deg": 352.5738,
      "mean_motion_rev_day": 15.26825299
    },
    {
      "epoch": "2026-05-15T08:00:01.000224Z",
      "apogee_km": 484.3619153392783,
      "perigee_km": 481.81187286679597,
      "latitude_deg": 38.09547356985687,
      "longitude_deg": 75.23954414173832,
      "height_km": 486.23588259295985,
      "semi_major_axis_km": 6861.223894103037,
      "eccentricity": 0.00018583,
      "inclination_deg": 42.9999,
      "raan_deg": 305.0371,
      "arg_perigee_deg": 263.4267,
      "mean_anomaly_deg": 212.1946,
      "mean_motion_rev_day": 15.27567377
    }
  ]
}